[{"OBJECT_NAME":"MESON-1","OBJECT_ID":"2024-043AK","EPOCH":"2026-03-09T21:36:16.481664","MEAN_MOTION":15.29893494,"ECCENTRICITY":0.00095452,"INCLINATION":97.5469,"RA_OF_ASC_NODE":205.2839,"ARG_OF_PERICENTER":227.1432,"MEAN_ANOMALY":132.9007,"EPHEMERIS_TYPE":0,"CLASSIFICATION_TYPE":"U","NORAD_CAT_ID":59131,"ELEMENT_SET_NO":999,"REV_AT_EPOCH":11189,"BSTAR":0.0002974823,"MEAN_MOTION_DOT":8.544e-5,"MEAN_MOTION_DDOT":0},{"OBJECT_NAME":"STARLINK-36147","OBJECT_ID":"2025-288AE","EPOCH":"2026-03-09T22:07:45.759360","MEAN_MOTION":15.27579586,"ECCENTRICITY":0.00015258,"INCLINATION":43.004,"RA_OF_ASC_NODE":22.0749,"ARG_OF_PERICENTER":266.9828,"MEAN_ANOMALY":93.0849,"EPHEMERIS_TYPE":0,"CLASSIFICATION_TYPE":"U","NORAD_CAT_ID":66987,"ELEMENT_SET_NO":999,"REV_AT_EPOCH":1532,"BSTAR":0.001230393,"MEAN_MOTION_DOT":0.0003375,"MEAN_MOTION_DDOT":0}]
